start=new Date('2023-02-22T00:00:00.000Z').valueOf();
sats=[{"EPHEMERIS_TYPE":"0","MEAN_ELEMENT_THEORY":"SGP4","COUNTRY_CODE":"US","INCLINATION":"53.2163","EPOCH":"2023-02-21T17:21:35.839872","RA_OF_ASC_NODE":"50.9405","MEAN_MOTION_DDOT":"0.0000000000000","REV_AT_EPOCH":"4663","NORAD_CAT_ID":"52293","OBJECT_TYPE":"PAYLOAD","SITE":"AFETR","CENTER_NAME":"EARTH","ELEMENT_SET_NO":"999","LAUNCH_DATE":"2022-04-21","DECAY_DATE":null,"PERIAPSIS":"538.388","APOAPSIS":"541.055","REF_FRAME":"TEME","TIME_SYSTEM":"UTC","MEAN_MOTION_DOT":"0.00021527","GP_ID":"226332283","TLE_LINE1":"1 52293U 22041AJ  23052.72333148  .00021527  00000-0  13662-2 0  9990","ARG_OF_PERICENTER":"75.3415","MEAN_MOTION":"15.08847812","TLE_LINE2":"2 52293  53.2163  50.9405 0001928  75.3415 284.7790 15.08847812 46631","RCS_SIZE":"LARGE","PERIOD":"95.437","CLASSIFICATION_TYPE":"U","SEMIMAJOR_AXIS":"6917.857","BSTAR":"0.00136620000000","OBJECT_NAME":"STARLINK-3771","MEAN_ANOMALY":"284.7790","FILE":"3821329","ECCENTRICITY":"0.00019280","OBJECT_ID":"2022-041AJ"},{"REV_AT_EPOCH":"4663","MEAN_MOTION_DDOT":"0.0000000000000","OBJECT_TYPE":"PAYLOAD","NORAD_CAT_ID":"52294","CENTER_NAME":"EARTH","SITE":"AFETR","ELEMENT_SET_NO":"999","LAUNCH_DATE":"2022-04-21","MEAN_ELEMENT_THEORY":"SGP4","EPHEMERIS_TYPE":"0","COUNTRY_CODE":"US","INCLINATION":"53.2158","RA_OF_ASC_NODE":"51.0059","EPOCH":"2023-02-21T16:59:01.029120","CLASSIFICATION_TYPE":"U","FILE":"3821329","MEAN_ANOMALY":"277.5252","SEMIMAJOR_AXIS":"6917.901","BSTAR":"0.00012418000000","OBJECT_NAME":"STARLINK-3777","OBJECT_ID":"2022-041AK","ECCENTRICITY":"0.00016570","TIME_SYSTEM":"UTC","DECAY_DATE":null,"PERIAPSIS":"538.619","APOAPSIS":"540.912","REF_FRAME":"TEME","TLE_LINE1":"1 52294U 22041AK  23052.70765080  .00001688  00000-0  12418-3 0  9998","MEAN_MOTION_DOT":"0.00001688","GP_ID":"226332533","TLE_LINE2":"2 52294  53.2158  51.0059 0001657  82.5928 277.5252 15.08833339 46633","ARG_OF_PERICENTER":"82.5928","MEAN_MOTION":"15.08833339","PERIOD":"95.438","RCS_SIZE":"MEDIUM"},{"SEMIMAJOR_AXIS":"6917.914","BSTAR":"-0.00038881000000","OBJECT_NAME":"STARLINK-3765","MEAN_ANOMALY":"268.5321","FILE":"3821329","CLASSIFICATION_TYPE":"U","ECCENTRICITY":"0.00010960","OBJECT_ID":"2022-041AL","MEAN_MOTION_DOT":"-0.00006468","GP_ID":"226333285","TLE_LINE1":"1 52295U 22041AL  23052.71867354 -.00006468  00000-0 -38881-3 0  9992","DECAY_DATE":null,"PERIAPSIS":"539.021","APOAPSIS":"540.537","REF_FRAME":"TEME","TIME_SYSTEM":"UTC","RCS_SIZE":"LARGE","PERIOD":"95.438","ARG_OF_PERICENTER":"91.5797","MEAN_MOTION":"15.08829067","TLE_LINE2":"2 52295  53.2164  50.9544 0001096  91.5797 268.5321 15.08829067 46639","NORAD_CAT_ID":"52295","OBJECT_TYPE":"PAYLOAD","MEAN_MOTION_DDOT":"0.0000000000000","REV_AT_EPOCH":"4663","ELEMENT_SET_NO":"999","LAUNCH_DATE":"2022-04-21","SITE":"AFETR","CENTER_NAME":"EARTH","COUNTRY_CODE":"US","EPHEMERIS_TYPE":"0","MEAN_ELEMENT_THEORY":"SGP4","EPOCH":"2023-02-21T17:14:53.393856","RA_OF_ASC_NODE":"50.9544","INCLINATION":"53.2164"},{"TLE_LINE1":"1 52296U 22041AM  23052.69660738  .00004560  00000-0  30441-3 0  9990","MEAN_MOTION_DOT":"0.00004560","GP_ID":"226333036","TIME_SYSTEM":"UTC","DECAY_DATE":null,"PERIAPSIS":"538.973","APOAPSIS":"540.535","REF_FRAME":"TEME","PERIOD":"95.438","RCS_SIZE":"LARGE","TLE_LINE2":"2 52296  53.2148  51.0554 0001129  93.7901 266.3220 15.08837076 46636","ARG_OF_PERICENTER":"93.7901","MEAN_MOTION":"15.08837076","FILE":"3821329","MEAN_ANOMALY":"266.3220","SEMIMAJOR_AXIS":"6917.889","OBJECT_NAME":"STARLINK-3766","BSTAR":"0.00030441000000","CLASSIFICATION_TYPE":"U","OBJECT_ID":"2022-041AM","ECCENTRICITY":"0.00011290","COUNTRY_CODE":"US","MEAN_ELEMENT_THEORY":"SGP4","EPHEMERIS_TYPE":"0","RA_OF_ASC_NODE":"51.0554","EPOCH":"2023-02-21T16:43:06.877632","INCLINATION":"53.2148","OBJECT_TYPE":"PAYLOAD","NORAD_CAT_ID":"52296","REV_AT_EPOCH":"4663","MEAN_MOTION_DDOT":"0.0000000000000","ELEMENT_SET_NO":"999","LAUNCH_DATE":"2022-04-21","CENTER_NAME":"EARTH","SITE":"AFETR"},{"GP_ID":"226331784","MEAN_MOTION_DOT":"0.00001702","TLE_LINE1":"1 52297U 22041AN  23052.71500762  .00001702  00000-0  12498-3 0  9991","PERIAPSIS":"539.147","APOAPSIS":"540.385","REF_FRAME":"TEME","DECAY_DATE":null,"TIME_SYSTEM":"UTC","RCS_SIZE":"LARGE","PERIOD":"95.438","MEAN_MOTION":"15.08833173","ARG_OF_PERICENTER":"118.0217","TLE_LINE2":"2 52297  53.2167  50.9708 0000895 118.0217 242.0866 15.08833173 46638","BSTAR":"0.00012498000000","OBJECT_NAME":"STARLINK-3758","SEMIMAJOR_AXIS":"6917.901","FILE":"3821329","MEAN_ANOMALY":"242.0866","CLASSIFICATION_TYPE":"U","ECCENTRICITY":"0.00008950","OBJECT_ID":"2022-041AN","COUNTRY_CODE":"US","EPHEMERIS_TYPE":"0","MEAN_ELEMENT_THEORY":"SGP4","EPOCH":"2023-02-21T17:09:36.658368","RA_OF_ASC_NODE":"50.9708","INCLINATION":"53.2167","NORAD_CAT_ID":"52297","OBJECT_TYPE":"PAYLOAD","MEAN_MOTION_DDOT":"0.0000000000000","REV_AT_EPOCH":"4663","LAUNCH_DATE":"2022-04-21","ELEMENT_SET_NO":"999","SITE":"AFETR","CENTER_NAME":"EARTH"},{"SITE":"AFETR","CENTER_NAME":"EARTH","ELEMENT_SET_NO":"999","LAUNCH_DATE":"2022-04-21","MEAN_MOTION_DDOT":"0.0000000000000","REV_AT_EPOCH":"4663","NORAD_CAT_ID":"52298","OBJECT_TYPE":"PAYLOAD","INCLINATION":"53.2151","EPOCH":"2023-02-21T16:39:11.311488","RA_OF_ASC_NODE":"51.0700","EPHEMERIS_TYPE":"0","MEAN_ELEMENT_THEORY":"SGP4","COUNTRY_CODE":"US","ECCENTRICITY":"0.00011760","OBJECT_ID":"2022-041AP","CLASSIFICATION_TYPE":"U","SEMIMAJOR_AXIS":"6917.859","BSTAR":"0.00012220000000","OBJECT_NAME":"STARLINK-3760","FILE":"3821329","MEAN_ANOMALY":"268.7862","ARG_OF_PERICENTER":"91.3265","MEAN_MOTION":"15.08846907","TLE_LINE2":"2 52298  53.2151  51.0700 0001176  91.3265 268.7862 15.08846907 46635","RCS_SIZE":"LARGE","PERIOD":"95.437","DECAY_DATE":null,"REF_FRAME":"TEME","PERIAPSIS":"538.911","APOAPSIS":"540.538","TIME_SYSTEM":"UTC","MEAN_MOTION_DOT":"0.00001658","GP_ID":"226332034","TLE_LINE1":"1 52298U 22041AP  23052.69388092  .00001658  00000-0  12220-3 0  9992"},{"CLASSIFICATION_TYPE":"U","MEAN_ANOMALY":"274.3389","FILE":"3821329","BSTAR":"0.00002129500000","OBJECT_NAME":"STARLINK-3759","SEMIMAJOR_AXIS":"6917.888","OBJECT_ID":"2022-041AQ","ECCENTRICITY":"0.00012400","TIME_SYSTEM":"UTC","APOAPSIS":"540.611","PERIAPSIS":"538.896","REF_FRAME":"TEME","DECAY_DATE":null,"TLE_LINE1":"1 52299U 22041AQ  23052.70028803  .00000051  00000-0  21295-4 0  9995","GP_ID":"226332786","MEAN_MOTION_DOT":"0.00000051","TLE_LINE2":"2 52299  53.2143  51.0410 0001240  85.7745 274.3389 15.08837385 46634","MEAN_MOTION":"15.08837385","ARG_OF_PERICENTER":"85.7745","PERIOD":"95.438","RCS_SIZE":"LARGE","REV_AT_EPOCH":"4663","MEAN_MOTION_DDOT":"0.0000000000000","OBJECT_TYPE":"PAYLOAD","NORAD_CAT_ID":"52299","CENTER_NAME":"EARTH","SITE":"AFETR","LAUNCH_DATE":"2022-04-21","ELEMENT_SET_NO":"999","MEAN_ELEMENT_THEORY":"SGP4","EPHEMERIS_TYPE":"0","COUNTRY_CODE":"US","INCLINATION":"53.2143","RA_OF_ASC_NODE":"51.0410","EPOCH":"2023-02-21T16:48:24.885792"},{"OBJECT_ID":"2022-041AR","ECCENTRICITY":"0.00025730","CLASSIFICATION_TYPE":"U","FILE":"3821329","MEAN_ANOMALY":"285.3941","SEMIMAJOR_AXIS":"6917.901","BSTAR":"0.00035560000000","OBJECT_NAME":"STARLINK-3769","TLE_LINE2":"2 52300  53.2159  51.1016 0002573  74.7335 285.3941 15.08833378 47859","ARG_OF_PERICENTER":"74.7335","MEAN_MOTION":"15.08833378","PERIOD":"95.438","RCS_SIZE":"LARGE","TIME_SYSTEM":"UTC","DECAY_DATE":null,"REF_FRAME":"TEME","PERIAPSIS":"537.986","APOAPSIS":"541.546","TLE_LINE1":"1 52300U 22041AR  23052.68556985  .00005375  00000-0  35560-3 0  9995","MEAN_MOTION_DOT":"0.00005375","GP_ID":"226333536","CENTER_NAME":"EARTH","SITE":"AFETR","ELEMENT_SET_NO":"999","LAUNCH_DATE":"2022-04-21","REV_AT_EPOCH":"4785","MEAN_MOTION_DDOT":"0.0000000000000","OBJECT_TYPE":"PAYLOAD","NORAD_CAT_ID":"52300","INCLINATION":"53.2159","RA_OF_ASC_NODE":"51.1016","EPOCH":"2023-02-21T16:27:13.235040","MEAN_ELEMENT_THEORY":"SGP4","EPHEMERIS_TYPE":"0","COUNTRY_CODE":"US"},{"INCLINATION":"53.2151","EPOCH":"2023-02-21T16:53:43.131552","RA_OF_ASC_NODE":"51.0236","EPHEMERIS_TYPE":"0","MEAN_ELEMENT_THEORY":"SGP4","COUNTRY_CODE":"US","SITE":"AFETR","CENTER_NAME":"EARTH","LAUNCH_DATE":"2022-04-21","ELEMENT_SET_NO":"999","MEAN_MOTION_DDOT":"0.0000000000000","REV_AT_EPOCH":"4663","NORAD_CAT_ID":"52301","OBJECT_TYPE":"PAYLOAD","MEAN_MOTION":"15.08832320","ARG_OF_PERICENTER":"92.7327","TLE_LINE2":"2 52301  53.2151  51.0236 0001947  92.7327 267.3888 15.08832320 46631","RCS_SIZE":"LARGE","PERIOD":"95.438","APOAPSIS":"541.116","PERIAPSIS":"538.422","REF_FRAME":"TEME","DECAY_DATE":null,"TIME_SYSTEM":"UTC","GP_ID":"226332284","MEAN_MOTION_DOT":"-0.00000580","TLE_LINE1":"1 52301U 22041AS  23052.70397143 -.00000580  00000-0 -18328-4 0  9997","ECCENTRICITY":"0.00019470","OBJECT_ID":"2022-041AS","CLASSIFICATION_TYPE":"U","BSTAR":"-0.00001832800000","OBJECT_NAME":"STARLINK-3768","SEMIMAJOR_AXIS":"6917.904","MEAN_ANOMALY":"267.3888","FILE":"3821329"},{"SITE":"AFETR","CENTER_NAME":"EARTH","LAUNCH_DATE":"2022-04-21","ELEMENT_SET_NO":"999","MEAN_MOTION_DDOT":"0.0000000000000","REV_AT_EPOCH":"4676","NORAD_CAT_ID":"52302","OBJECT_TYPE":"PAYLOAD","INCLINATION":"53.2177","EPOCH":"2023-02-21T16:12:39.019968","RA_OF_ASC_NODE":"41.1400","EPHEMERIS_TYPE":"0","MEAN_ELEMENT_THEORY":"SGP4","COUNTRY_CODE":"US","ECCENTRICITY":"0.00019490","OBJECT_ID":"2022-041AT","CLASSIFICATION_TYPE":"U","OBJECT_NAME":"STARLINK-3564","BSTAR":"-0.00009385800000","SEMIMAJOR_AXIS":"6917.902","MEAN_ANOMALY":"275.1144","FILE":"3821329","MEAN_MOTION":"15.08832795","ARG_OF_PERICENTER":"85.0070","TLE_LINE2":"2 52302  53.2177  41.1400 0001949  85.0070 275.1144 15.08832795 46767","RCS_SIZE":"LARGE","PERIOD":"95.438","PERIAPSIS":"538.419","REF_FRAME":"TEME","APOAPSIS":"541.116","DECAY_DATE":null,"TIME_SYSTEM":"UTC","GP_ID":"226332534","MEAN_MOTION_DOT":"-0.00001781","TLE_LINE1":"1 52302U 22041AT  23052.67545162 -.00001781  00000-0 -93858-4 0  9995"}];
